start=new Date('2021-12-13T00:00:00.000Z').valueOf();
sats=[{"MEAN_MOTION":"15.06407700","MEAN_ANOMALY":"289.7331","CENTER_NAME":"EARTH","NORAD_CAT_ID":"47141","DECAY_DATE":null,"RCS_SIZE":"LARGE","PERIOD":"95.592","BSTAR":"0.00015407000000","MEAN_ELEMENT_THEORY":"SGP4","FILE":"3238376","RA_OF_ASC_NODE":"39.9158","REV_AT_EPOCH":"5869","TLE_LINE2":"2 47141  53.0626  39.9158 0001358  70.3804 289.7331 15.06407700 58696","CLASSIFICATION_TYPE":"U","GP_ID":"191587043","TLE_LINE1":"1 47141U 20088V   21346.89380186  .00002015  00000-0  15407-3 0  9992","ELEMENT_SET_NO":"999","SEMIMAJOR_AXIS":"6925.325","OBJECT_TYPE":"PAYLOAD","OBJECT_NAME":"STARLINK-1854","MEAN_MOTION_DDOT":"0.0000000000000","LAUNCH_DATE":"2020-11-25","ECCENTRICITY":"0.00013580","COUNTRY_CODE":"US","MEAN_MOTION_DOT":"0.00002015","PERIAPSIS":"546.249","ARG_OF_PERICENTER":"70.3804","SITE":"AFETR","INCLINATION":"53.0626","EPHEMERIS_TYPE":"0","OBJECT_ID":"2020-088V","REF_FRAME":"TEME","APOAPSIS":"548.130","TIME_SYSTEM":"UTC","EPOCH":"2021-12-12T21:27:04.480704"},{"APOAPSIS":"548.060","OBJECT_ID":"2020-088X","REF_FRAME":"TEME","EPOCH":"2021-12-12T21:00:32.002560","TIME_SYSTEM":"UTC","INCLINATION":"53.0559","EPHEMERIS_TYPE":"0","SITE":"AFETR","ARG_OF_PERICENTER":"61.2701","COUNTRY_CODE":"US","MEAN_MOTION_DOT":"0.00001147","PERIAPSIS":"546.350","LAUNCH_DATE":"2020-11-25","ECCENTRICITY":"0.00012340","MEAN_MOTION_DDOT":"0.0000000000000","OBJECT_NAME":"STARLINK-1856","OBJECT_TYPE":"PAYLOAD","GP_ID":"191587299","TLE_LINE1":"1 47143U 20088X   21346.87537040  .00001147  00000-0  95883-4 0  9997","ELEMENT_SET_NO":"999","SEMIMAJOR_AXIS":"6925.340","TLE_LINE2":"2 47143  53.0559  40.0143 0001234  61.2701 298.8412 15.06402803 58687","CLASSIFICATION_TYPE":"U","PERIOD":"95.592","DECAY_DATE":null,"RCS_SIZE":"LARGE","MEAN_ELEMENT_THEORY":"SGP4","BSTAR":"0.00009588300000","CENTER_NAME":"EARTH","NORAD_CAT_ID":"47143","REV_AT_EPOCH":"5868","FILE":"3238376","RA_OF_ASC_NODE":"40.0143","MEAN_MOTION":"15.06402803","MEAN_ANOMALY":"298.8412"},{"MEAN_MOTION_DOT":"0.00002494","PERIAPSIS":"546.124","COUNTRY_CODE":"US","ECCENTRICITY":"0.00015770","LAUNCH_DATE":"2020-11-25","TIME_SYSTEM":"UTC","EPOCH":"2021-12-12T20:40:38.757216","OBJECT_ID":"2020-088Y","REF_FRAME":"TEME","APOAPSIS":"548.309","SITE":"AFETR","ARG_OF_PERICENTER":"66.3185","INCLINATION":"53.0564","EPHEMERIS_TYPE":"0","FILE":"3238376","RA_OF_ASC_NODE":"30.0898","REV_AT_EPOCH":"5882","CENTER_NAME":"EARTH","NORAD_CAT_ID":"47144","RCS_SIZE":"LARGE","DECAY_DATE":null,"PERIOD":"95.592","MEAN_ELEMENT_THEORY":"SGP4","BSTAR":"0.00018628000000","MEAN_ANOMALY":"293.7969","MEAN_MOTION":"15.06399003","OBJECT_TYPE":"PAYLOAD","OBJECT_NAME":"STARLINK-1857","MEAN_MOTION_DDOT":"0.0000000000000","CLASSIFICATION_TYPE":"U","TLE_LINE2":"2 47144  53.0564  30.0898 0001577  66.3185 293.7969 15.06399003 58826","GP_ID":"191586045","SEMIMAJOR_AXIS":"6925.352","TLE_LINE1":"1 47144U 20088Y   21346.86155969  .00002494  00000-0  18628-3 0  9990","ELEMENT_SET_NO":"999"},{"OBJECT_TYPE":"PAYLOAD","OBJECT_NAME":"STARLINK-1858","MEAN_MOTION_DDOT":"0.0000000000000","CLASSIFICATION_TYPE":"U","TLE_LINE2":"2 47145  53.0572  30.1133 0002221 288.5844  71.4904 15.06391274 58828","GP_ID":"191586297","ELEMENT_SET_NO":"999","TLE_LINE1":"1 47145U 20088Z   21346.85416995 -.00000531  00000-0 -16751-4 0  9997","SEMIMAJOR_AXIS":"6925.375","FILE":"3238376","RA_OF_ASC_NODE":"30.1133","REV_AT_EPOCH":"5882","CENTER_NAME":"EARTH","NORAD_CAT_ID":"47145","PERIOD":"95.593","DECAY_DATE":null,"RCS_SIZE":"LARGE","MEAN_ELEMENT_THEORY":"SGP4","BSTAR":"-0.00001675100000","MEAN_ANOMALY":"71.4904","MEAN_MOTION":"15.06391274","TIME_SYSTEM":"UTC","EPOCH":"2021-12-12T20:30:00.283680","OBJECT_ID":"2020-088Z","REF_FRAME":"TEME","APOAPSIS":"548.778","SITE":"AFETR","ARG_OF_PERICENTER":"288.5844","INCLINATION":"53.0572","EPHEMERIS_TYPE":"0","MEAN_MOTION_DOT":"-0.00000531","PERIAPSIS":"545.702","COUNTRY_CODE":"US","ECCENTRICITY":"0.00022210","LAUNCH_DATE":"2020-11-25"},{"REF_FRAME":"TEME","OBJECT_ID":"2020-088AA","APOAPSIS":"438.232","TIME_SYSTEM":"UTC","EPOCH":"2021-12-12T21:22:10.443360","SITE":"AFETR","ARG_OF_PERICENTER":"35.0609","EPHEMERIS_TYPE":"0","INCLINATION":"53.0567","COUNTRY_CODE":"US","PERIAPSIS":"435.632","MEAN_MOTION_DOT":"0.00044033","LAUNCH_DATE":"2020-11-25","ECCENTRICITY":"0.00019080","OBJECT_TYPE":"PAYLOAD","MEAN_MOTION_DDOT":"0.0000000000000","OBJECT_NAME":"STARLINK-1859","TLE_LINE2":"2 47146  53.0567  53.6908 0001908  35.0609 325.0521 15.43112482 58497","CLASSIFICATION_TYPE":"U","TLE_LINE1":"1 47146U 20088AA  21346.89039865  .00044033  00000-0  98356-3 0  9992","SEMIMAJOR_AXIS":"6815.067","ELEMENT_SET_NO":"999","GP_ID":"191587544","NORAD_CAT_ID":"47146","CENTER_NAME":"EARTH","MEAN_ELEMENT_THEORY":"SGP4","BSTAR":"0.00098356000000","DECAY_DATE":null,"PERIOD":"93.318","RCS_SIZE":"LARGE","RA_OF_ASC_NODE":"53.6908","FILE":"3238376","REV_AT_EPOCH":"5849","MEAN_MOTION":"15.43112482","MEAN_ANOMALY":"325.0521"},{"BSTAR":"-0.00003780800000","MEAN_ELEMENT_THEORY":"SGP4","DECAY_DATE":null,"PERIOD":"95.593","RCS_SIZE":"LARGE","NORAD_CAT_ID":"47147","CENTER_NAME":"EARTH","REV_AT_EPOCH":"5855","RA_OF_ASC_NODE":"49.9922","FILE":"3238376","MEAN_MOTION":"15.06393744","MEAN_ANOMALY":"299.5540","MEAN_MOTION_DDOT":"0.0000000000000","OBJECT_NAME":"STARLINK-1860","OBJECT_TYPE":"PAYLOAD","SEMIMAJOR_AXIS":"6925.368","TLE_LINE1":"1 47147U 20088AB  21346.88551249 -.00000844  00000-0 -37808-4 0  9997","ELEMENT_SET_NO":"999","GP_ID":"191587800","CLASSIFICATION_TYPE":"U","TLE_LINE2":"2 47147  53.0563  49.9922 0001312  60.5579 299.5540 15.06393744 58550","COUNTRY_CODE":"US","PERIAPSIS":"546.324","MEAN_MOTION_DOT":"-0.00000844","LAUNCH_DATE":"2020-11-25","ECCENTRICITY":"0.00013120","APOAPSIS":"548.141","REF_FRAME":"TEME","OBJECT_ID":"2020-088AB","EPOCH":"2021-12-12T21:15:08.279136","TIME_SYSTEM":"UTC","EPHEMERIS_TYPE":"0","INCLINATION":"53.0563","SITE":"AFETR","ARG_OF_PERICENTER":"60.5579"},{"MEAN_ANOMALY":"290.1964","MEAN_MOTION":"15.06395986","REV_AT_EPOCH":"5868","RA_OF_ASC_NODE":"40.0970","FILE":"3238376","MEAN_ELEMENT_THEORY":"SGP4","BSTAR":"0.00007500500000","DECAY_DATE":null,"PERIOD":"95.592","RCS_SIZE":"LARGE","NORAD_CAT_ID":"47148","CENTER_NAME":"EARTH","ELEMENT_SET_NO":"999","TLE_LINE1":"1 47148U 20088AC  21346.86062873  .00000836  00000-0  75005-4 0  9996","SEMIMAJOR_AXIS":"6925.361","GP_ID":"191586546","CLASSIFICATION_TYPE":"U","TLE_LINE2":"2 47148  53.0575  40.0970 0001340  69.9169 290.1964 15.06395986 58689","MEAN_MOTION_DDOT":"0.0000000000000","OBJECT_NAME":"STARLINK-1861","OBJECT_TYPE":"PAYLOAD","ECCENTRICITY":"0.00013400","LAUNCH_DATE":"2020-11-25","PERIAPSIS":"546.298","MEAN_MOTION_DOT":"0.00000836","COUNTRY_CODE":"US","EPHEMERIS_TYPE":"0","INCLINATION":"53.0575","SITE":"AFETR","ARG_OF_PERICENTER":"69.9169","EPOCH":"2021-12-12T20:39:18.322272","TIME_SYSTEM":"UTC","APOAPSIS":"548.154","REF_FRAME":"TEME","OBJECT_ID":"2020-088AC"},{"SITE":"AFETR","ARG_OF_PERICENTER":"71.0622","EPHEMERIS_TYPE":"0","INCLINATION":"53.0553","REF_FRAME":"TEME","OBJECT_ID":"2020-088AD","APOAPSIS":"548.088","TIME_SYSTEM":"UTC","EPOCH":"2021-12-12T21:20:26.134368","LAUNCH_DATE":"2020-11-25","ECCENTRICITY":"0.00012520","COUNTRY_CODE":"US","PERIAPSIS":"546.354","MEAN_MOTION_DOT":"0.00001191","CLASSIFICATION_TYPE":"U","TLE_LINE2":"2 47149  53.0553  49.9686 0001252  71.0622 289.0502 15.06397659 59289","SEMIMAJOR_AXIS":"6925.356","TLE_LINE1":"1 47149U 20088AD  21346.88919137  .00001191  00000-0  98809-4 0  9995","ELEMENT_SET_NO":"999","GP_ID":"191586798","OBJECT_TYPE":"PAYLOAD","MEAN_MOTION_DDOT":"0.0000000000000","OBJECT_NAME":"STARLINK-1862","MEAN_MOTION":"15.06397659","MEAN_ANOMALY":"289.0502","NORAD_CAT_ID":"47149","CENTER_NAME":"EARTH","BSTAR":"0.00009880900000","MEAN_ELEMENT_THEORY":"SGP4","RCS_SIZE":"LARGE","DECAY_DATE":null,"PERIOD":"95.592","RA_OF_ASC_NODE":"49.9686","FILE":"3238376","REV_AT_EPOCH":"5928"},{"PERIAPSIS":"546.355","MEAN_MOTION_DOT":"0.00000884","COUNTRY_CODE":"US","ECCENTRICITY":"0.00012130","LAUNCH_DATE":"2020-11-25","TIME_SYSTEM":"UTC","EPOCH":"2021-12-12T21:11:08.326464","REF_FRAME":"TEME","OBJECT_ID":"2020-088AE","APOAPSIS":"548.035","ARG_OF_PERICENTER":"65.7211","SITE":"AFETR","EPHEMERIS_TYPE":"0","INCLINATION":"53.0551","RA_OF_ASC_NODE":"39.9974","FILE":"3238376","REV_AT_EPOCH":"5869","NORAD_CAT_ID":"47150","CENTER_NAME":"EARTH","BSTAR":"0.00007824500000","MEAN_ELEMENT_THEORY":"SGP4","PERIOD":"95.592","DECAY_DATE":null,"RCS_SIZE":"LARGE","MEAN_ANOMALY":"294.3905","MEAN_MOTION":"15.06405932","OBJECT_TYPE":"PAYLOAD","MEAN_MOTION_DDOT":"0.0000000000000","OBJECT_NAME":"STARLINK-1863","CLASSIFICATION_TYPE":"U","TLE_LINE2":"2 47150  53.0551  39.9974 0001213  65.7211 294.3905 15.06405932 58693","ELEMENT_SET_NO":"999","TLE_LINE1":"1 47150U 20088AE  21346.88273526  .00000884  00000-0  78245-4 0  9992","SEMIMAJOR_AXIS":"6925.330","GP_ID":"191587044"},{"FILE":"3238376","RA_OF_ASC_NODE":"49.9985","REV_AT_EPOCH":"5854","CENTER_NAME":"EARTH","NORAD_CAT_ID":"47151","RCS_SIZE":"LARGE","DECAY_DATE":null,"PERIOD":"95.592","BSTAR":"-0.00003550100000","MEAN_ELEMENT_THEORY":"SGP4","MEAN_ANOMALY":"285.3767","MEAN_MOTION":"15.06398476","OBJECT_TYPE":"PAYLOAD","OBJECT_NAME":"STARLINK-1864","MEAN_MOTION_DDOT":"0.0000000000000","TLE_LINE2":"2 47151  53.0565  49.9985 0001426  74.7380 285.3767 15.06398476 58549","CLASSIFICATION_TYPE":"U","GP_ID":"191587300","TLE_LINE1":"1 47151U 20088AF  21346.88182657 -.00000810  00000-0 -35501-4 0  9996","ELEMENT_SET_NO":"999","SEMIMAJOR_AXIS":"6925.353","MEAN_MOTION_DOT":"-0.00000810","PERIAPSIS":"546.231","COUNTRY_CODE":"US","ECCENTRICITY":"0.00014260","LAUNCH_DATE":"2020-11-25","TIME_SYSTEM":"UTC","EPOCH":"2021-12-12T21:09:49.815648","OBJECT_ID":"2020-088AF","REF_FRAME":"TEME","APOAPSIS":"548.206","SITE":"AFETR","ARG_OF_PERICENTER":"74.7380","INCLINATION":"53.0565","EPHEMERIS_TYPE":"0"}];
